NORAD_CAT_ID,OBJECT_NAME,OBJECT_TYPE,EPOCH,MEAN_MOTION,ECCENTRICITY,INCLINATION,RA_OF_ASC_NODE,ARG_OF_PERICENTER,MEAN_ANOMALY,BSTAR,MEAN_MOTION_DOT,MEAN_MOTION_DDOT,TLE_LINE0,TLE_LINE1,TLE_LINE2,SEMIMAJOR_AXIS,PERIOD,APOGEE,PERIGEE,DECAYED
53423.0,STARLINK-4539,PAYLOAD,2023-03-12 04:28:24,15.08823982,0.0001009,53.217,343.0604,104.0291,256.0814,0.00067792,0.00010513,0.0,0 STARLINK-4539,1 53423U 22097AM  23071.18638915  .00010513  00000-0  67792-3 0  9995,2 53423  53.2170 343.0604 0001009 104.0291 256.0814 15.08823982 33080,6917.929,95.439,540.492,539.096,0.0
53423.0,STARLINK-4539,PAYLOAD,2023-03-13 04:19:09,15.08881025,0.0002274,53.2157,338.5981,78.6288,281.496,0.0012345,0.00019436,0.0,0 STARLINK-4539,1 53423U 22097AM  23072.17996837  .00019436  00000-0  12345-2 0  9991,2 53423  53.2157 338.5981 0002274  78.6288 281.4960 15.08881025 33232,6917.755,95.435,541.193,538.047,0.0
53423.0,STARLINK-4539,PAYLOAD,2023-03-13 21:48:23,15.0884611,8.57e-05,53.216,335.3288,67.6718,292.4365,-0.00077906,-0.00012667,0.0,0 STARLINK-4539,1 53423U 22097AM  23072.90860362 -.00012667  00000-0 -77906-3 0  9991,2 53423  53.2160 335.3288 0000857  67.6718 292.4365 15.08846110 33802,6917.862,95.437,540.32,539.134,0.0
53423.0,STARLINK-4539,PAYLOAD,2023-03-14 02:34:32,15.08851689,9.62e-05,53.2162,334.4363,84.794,275.3161,-0.00022039,-3.795e-05,0.0,0 STARLINK-4539,1 53423U 22097AM  23073.10732400 -.00003795  00000-0 -22039-3 0  9994,2 53423  53.2162 334.4363 0000962  84.7940 275.3161 15.08851689 33375,6917.845,95.437,540.375,539.044,0.0
53423.0,STARLINK-4539,PAYLOAD,2023-03-14 10:31:28,15.08833836,8.2e-05,53.2162,332.95,90.6655,269.4431,0.00032526,4.892e-05,0.0,0 STARLINK-4539,1 53423U 22097AM  23073.43852580  .00004892  00000-0  32526-3 0  9991,2 53423  53.2162 332.9500 0000820  90.6655 269.4431 15.08833836 33427,6917.899,95.438,540.331,539.197,0.0
53423.0,STARLINK-4539,PAYLOAD,2023-03-14 21:39:10,15.08854247,0.0001024,53.2158,330.8711,71.2785,288.8319,0.00067917,0.00010542,0.0,0 STARLINK-4539,1 53423U 22097AM  23073.90220454  .00010542  00000-0  67917-3 0  9993,2 53423  53.2158 330.8711 0001024  71.2785 288.8319 15.08854247 33956,6917.837,95.437,540.41,538.993,0.0
53423.0,STARLINK-4539,PAYLOAD,2023-03-15 02:25:19,15.08877066,0.0001224,53.2148,329.9768,76.9201,283.1927,0.0018877,0.00029913,0.0,0 STARLINK-4539,1 53423U 22097AM  23074.10092089  .00029913  00000-0  18877-2 0  9999,2 53423  53.2148 329.9768 0001224  76.9201 283.1927 15.08877066 33523,6917.767,95.435,540.479,538.785,0.0
53423.0,STARLINK-4539,PAYLOAD,2023-03-15 16:43:48,15.08841959,0.000142,53.2158,327.3003,75.3509,284.7641,0.001135,0.00017823,0.0,0 STARLINK-4539,1 53423U 22097AM  23074.69709066  .00017823  00000-0  11350-2 0  9999,2 53423  53.2158 327.3003 0001420  75.3509 284.7641 15.08841959 33612,6917.874,95.437,540.722,538.757,0.0
53423.0,STARLINK-4539,PAYLOAD,2023-03-15 21:29:58,15.08805524,0.0001835,53.2158,326.4085,23.2263,336.8812,0.00044058,6.724e-05,0.0,0 STARLINK-4539,1 53423U 22097AM  23074.89581884  .00006724  00000-0  44058-3 0  9997,2 53423  53.2158 326.4085 0001835  23.2263 336.8812 15.08805524 34103,6917.986,95.44,541.12,538.581,0.0
53423.0,STARLINK-4539,PAYLOAD,2023-03-16 02:16:08,15.0881339,0.0001539,53.2157,325.5149,71.3599,288.7561,-0.00017707,-3.103e-05,0.0,0 STARLINK-4539,1 53423U 22097AM  23075.09453965 -.00003103  00000-0 -17707-3 0  9999,2 53423  53.2157 325.5149 0001539  71.3599 288.7561 15.08813390 33677,6917.962,95.439,540.891,538.762,0.0
53423.0,STARLINK-4539,PAYLOAD,2023-03-16 22:56:09,15.08853543,0.0001614,53.2159,321.6498,68.888,291.2285,0.0013541,0.00021336,0.0,0 STARLINK-4539,1 53423U 22097AM  23075.95566215  .00021336  00000-0  13541-2 0  9994,2 53423  53.2159 321.6498 0001614  68.8880 291.2285 15.08853543 33802,6917.839,95.437,540.821,538.587,0.0
53423.0,STARLINK-4539,PAYLOAD,2023-03-17 02:06:55,15.08869345,0.0001651,53.2161,321.055,70.3597,289.7574,0.0016621,0.00026285,0.0,0 STARLINK-4539,1 53423U 22097AM  23076.08813907  .00026285  00000-0  16621-2 0  9992,2 53423  53.2161 321.0550 0001651  70.3597 289.7574 15.08869345 33824,6917.791,95.436,540.798,538.514,0.0
53423.0,STARLINK-4539,PAYLOAD,2023-03-17 21:11:32,15.08862288,0.0001458,53.2159,317.487,80.4212,279.6945,0.0014787,0.00023338,0.0,0 STARLINK-4539,1 53423U 22097AM  23076.88301606  .00023338  00000-0  14787-2 0  9995,2 53423  53.2159 317.4870 0001458  80.4212 279.6945 15.08862288 34400,6917.812,95.436,540.686,538.669,0.0
53423.0,STARLINK-4539,PAYLOAD,2023-03-17 22:46:55,15.08862529,0.0001508,53.2165,317.1897,80.9125,279.2038,0.0014922,0.00023555,0.0,0 STARLINK-4539,1 53423U 22097AM  23076.94925558  .00023555  00000-0  14922-2 0  9992,2 53423  53.2165 317.1897 0001508  80.9125 279.2038 15.08862529 33953,6917.812,95.436,540.72,538.633,0.0
53423.0,STARLINK-4539,PAYLOAD,2023-03-18 08:19:14,15.08852867,0.0001441,53.216,315.4049,76.1659,283.9494,0.0012438,0.00019569,0.0,0 STARLINK-4539,1 53423U 22097AM  23077.34669436  .00019569  00000-0  12438-2 0  9997,2 53423  53.2160 315.4049 0001441  76.1659 283.9494 15.08852867 34013,6917.841,95.437,540.703,538.709,0.0
53423.0,STARLINK-4539,PAYLOAD,2023-03-18 21:02:19,15.08842957,0.000164,53.2172,313.0284,94.8068,265.3111,0.00067496,0.00010471,0.0,0 STARLINK-4539,1 53423U 22097AM  23077.87661383  .00010471  00000-0  67496-3 0  9996,2 53423  53.2172 313.0284 0001640  94.8068 265.3111 15.08842957 34090,6917.871,95.437,540.871,538.602,0.0
53423.0,STARLINK-4539,PAYLOAD,2023-03-18 22:37:42,15.08850017,0.000149,53.2166,312.7313,86.658,273.4582,0.00044201,6.756e-05,0.0,0 STARLINK-4539,1 53423U 22097AM  23077.94285071  .00006756  00000-0  44201-3 0  9990,2 53423  53.2166 312.7313 0001490  86.6580 273.4582 15.08850017 34563,6917.85,95.437,540.746,538.684,0.0
53423.0,STARLINK-4539,PAYLOAD,2023-03-19 08:10:01,15.08845742,0.0001432,53.2168,310.9429,76.3976,283.7176,0.00040766,6.207e-05,0.0,0 STARLINK-4539,1 53423U 22097AM  23078.34029315  .00006207  00000-0  40766-3 0  9995,2 53423  53.2168 310.9429 0001432  76.3976 283.7176 15.08845742 34162,6917.863,95.437,540.718,538.737,0.0
53423.0,STARLINK-4539,PAYLOAD,2023-03-19 20:53:06,15.08842416,0.0001329,53.2156,308.5654,90.8843,269.2301,0.00020498,2.976e-05,0.0,0 STARLINK-4539,1 53423U 22097AM  23078.87021267  .00002976  00000-0  20498-3 0  9990,2 53423  53.2156 308.5654 0001329  90.8843 269.2301 15.08842416 34705,6917.873,95.437,540.657,538.819,0.0
53423.0,STARLINK-4539,PAYLOAD,2023-03-20 08:00:48,15.08847746,0.0001189,53.2155,306.485,88.1474,271.9654,0.00029949,4.483e-05,0.0,0 STARLINK-4539,1 53423U 22097AM  23079.33389064  .00004483  00000-0  29949-3 0  9999,2 53423  53.2155 306.4850 0001189  88.1474 271.9654 15.08847746 34312,6917.857,95.437,540.544,538.899,0.0
53423.0,STARLINK-4539,PAYLOAD,2023-03-20 22:19:16,15.08839447,0.0001461,53.2156,303.8096,90.0957,270.0203,2.3255e-05,8.2e-07,0.0,0 STARLINK-4539,1 53423U 22097AM  23079.93005419  .00000082  00000-0  23255-4 0  9990,2 53423  53.2156 303.8096 0001461  90.0957 270.0203 15.08839447 34406,6917.882,95.438,540.758,538.736,0.0
53423.0,STARLINK-4539,PAYLOAD,2023-03-21 01:30:02,15.08845468,0.0001376,53.2151,303.2123,81.1984,278.9164,0.00015495,2.179e-05,0.0,0 STARLINK-4539,1 53423U 22097AM  23080.06253193  .00002179  00000-0  15495-3 0  9995,2 53423  53.2151 303.2123 0001376  81.1984 278.9164 15.08845468 34887,6917.864,95.437,540.681,538.777,0.0
53423.0,STARLINK-4539,PAYLOAD,2023-03-21 22:10:03,15.08845959,0.0001306,53.2156,299.345,78.4732,281.6406,0.00012331,1.675e-05,0.0,0 STARLINK-4539,1 53423U 22097AM  23080.92365141  .00001675  00000-0  12331-3 0  9993,2 53423  53.2156 299.3450 0001306  78.4732 281.6406 15.08845959 35014,6917.862,95.437,540.631,538.824,0.0
53423.0,STARLINK-4539,PAYLOAD,2023-03-21 23:45:26,15.0884688,0.000131,53.2154,299.0474,77.5558,282.5581,0.00014672,2.048e-05,0.0,0 STARLINK-4539,1 53423U 22097AM  23080.98989087  .00002048  00000-0  14672-3 0  9995,2 53423  53.2154 299.0474 0001310  77.5558 282.5581 15.08846880 34563,6917.859,95.437,540.631,538.818,0.0
53423.0,STARLINK-4539,PAYLOAD,2023-03-22 20:25:27,15.08844443,0.0001177,53.2146,295.1813,87.7514,272.3613,0.00010665,1.41e-05,0.0,0 STARLINK-4539,1 53423U 22097AM  23081.85101221  .00001410  00000-0  10665-3 0  9998,2 53423  53.2146 295.1813 0001177  87.7514 272.3613 15.08844443 34694,6917.867,95.437,540.546,538.918,0.0
53423.0,STARLINK-4539,PAYLOAD,2023-03-22 23:36:13,15.08848253,0.000122,53.2148,294.5862,87.935,272.1782,0.00016503,2.34e-05,0.0,0 STARLINK-4539,1 53423U 22097AM  23081.98349026  .00002340  00000-0  16503-3 0  9999,2 53423  53.2148 294.5862 0001220  87.9350 272.1782 15.08848253 35174,6917.855,95.437,540.564,538.876,0.0
53423.0,STARLINK-4539,PAYLOAD,2023-03-23 20:16:15,15.08839434,0.0001191,53.215,290.7216,84.6276,275.4851,0.00010149,1.328e-05,0.0,0 STARLINK-4539,1 53423U 22097AM  23082.84461837  .00001328  00000-0  10149-3 0  9995,2 53423  53.2150 290.7216 0001191  84.6276 275.4851 15.08839434 34843,6917.882,95.438,540.571,538.923,0.0
53423.0,STARLINK-4539,PAYLOAD,2023-03-23 23:27:00,15.08846319,0.0001139,53.215,290.1273,83.2577,276.8545,0.00010344,1.359e-05,0.0,0 STARLINK-4539,1 53423U 22097AM  23082.97709407  .00001359  00000-0  10344-3 0  9998,2 53423  53.2150 290.1273 0001139  83.2577 276.8545 15.08846319 34868,6917.861,95.437,540.514,538.938,0.0
53423.0,STARLINK-4539,PAYLOAD,2023-03-24 20:07:01,15.08867618,0.0001152,53.2152,286.2629,90.9142,269.1982,0.00096995,0.00015194,0.0,0 STARLINK-4539,1 53423U 22097AM  23083.83820678  .00015194  00000-0  96995-3 0  9996,2 53423  53.2152 286.2629 0001152  90.9142 269.1982 15.08867618 34998,6917.796,95.436,540.458,538.864,0.0
53423.0,STARLINK-4539,PAYLOAD,2023-03-25 12:00:53,15.08827911,0.0001473,53.2144,283.2889,79.2321,280.8837,-0.00051127,-8.413e-05,0.0,0 STARLINK-4539,1 53423U 22097AM  23084.50061568 -.00008413  00000-0 -51127-3 0  9992,2 53423  53.2144 283.2889 0001473  79.2321 280.8837 15.08827911 35092,6917.917,95.438,540.801,538.763,0.0
